NORAD_CAT_ID,OBJECT_NAME,OBJECT_TYPE,EPOCH,MEAN_MOTION,ECCENTRICITY,INCLINATION,RA_OF_ASC_NODE,ARG_OF_PERICENTER,MEAN_ANOMALY,BSTAR,MEAN_MOTION_DOT,MEAN_MOTION_DDOT,TLE_LINE0,TLE_LINE1,TLE_LINE2,SEMIMAJOR_AXIS,PERIOD,APOGEE,PERIGEE,DECAYED
52001.0,STARLINK-3659,PAYLOAD,2024-05-04 02:33:22,15.08843446,0.0002003,53.2139,167.4531,86.3953,273.7268,4.8875e-05,4.9e-06,0.0,0 STARLINK-3659,1 52001U 22025AX  24125.10651409  .00000490  00000-0  48875-4 0  9998,2 52001  53.2139 167.4531 0002003  86.3953 273.7268 15.08843446120617,6917.87,95.437,541.121,538.349,0.0
52001.0,STARLINK-3659,PAYLOAD,2024-05-04 12:05:41,15.08829585,0.000135,53.2142,165.6664,94.0502,266.0645,-0.00016979,-2.988e-05,0.0,0 STARLINK-3659,1 52001U 22025AX  24125.50395811 -.00002988  00000-0 -16979-3 0  9999,2 52001  53.2142 165.6664 0001350  94.0502 266.0645 15.08829585120676,6917.912,95.438,540.711,538.843,0.0
52001.0,STARLINK-3659,PAYLOAD,2024-05-05 11:56:30,15.08820482,0.000138,53.2143,161.2067,94.9466,265.1684,0.00032522,4.889e-05,0.0,0 STARLINK-3659,1 52001U 22025AX  24126.49757539  .00004889  00000-0  32522-3 0  9999,2 52001  53.2143 161.2067 0001380  94.9466 265.1684 15.08820482120824,6917.94,95.439,540.76,538.85,0.0
52001.0,STARLINK-3659,PAYLOAD,2024-05-06 11:47:17,15.08852127,0.000142,53.2141,156.7468,98.1449,261.9704,0.0010434,0.00016362,0.0,0 STARLINK-3659,1 52001U 22025AX  24127.49117694  .00016362  00000-0  10434-2 0  9998,2 52001  53.2141 156.7468 0001420  98.1449 261.9704 15.08852127120972,6917.843,95.437,540.691,538.726,0.0
52001.0,STARLINK-3659,PAYLOAD,2024-05-07 08:27:17,15.08873946,0.0001421,53.2147,152.8799,97.6669,262.4484,0.00095919,0.00015025,0.0,0 STARLINK-3659,1 52001U 22025AX  24128.35228482  .00015025  00000-0  95919-3 0  9999,2 52001  53.2147 152.8799 0001421  97.6669 262.4484 15.08873946119578,6917.777,95.435,540.625,538.659,0.0
52001.0,STARLINK-3659,PAYLOAD,2024-05-08 05:07:17,15.08856625,0.0001411,53.2138,149.0144,97.3419,262.7734,0.00017881,2.56e-05,0.0,0 STARLINK-3659,1 52001U 22025AX  24129.21339814  .00002560  00000-0  17881-3 0  9999,2 52001  53.2138 149.0144 0001411  97.3419 262.7734 15.08856625121231,6917.83,95.437,540.671,538.718,0.0
52001.0,STARLINK-3659,PAYLOAD,2024-05-08 08:18:03,15.08850332,0.0001412,53.2141,148.4193,98.0003,262.115,-5.6235e-05,-1.183e-05,0.0,0 STARLINK-3659,1 52001U 22025AX  24129.34587828 -.00001183  00000-0 -56235-4 0  9992,2 52001  53.2141 148.4193 0001412  98.0003 262.1150 15.08850332119726,6917.849,95.437,540.691,538.737,0.0
52001.0,STARLINK-3659,PAYLOAD,2024-05-08 17:50:22,15.08849746,0.0001357,53.214,146.6356,98.606,261.5085,-2.1887e-05,-6.36e-06,0.0,0 STARLINK-3659,1 52001U 22025AX  24129.74331693 -.00000636  00000-0 -21887-4 0  9990,2 52001  53.2140 146.6356 0001357  98.6060 261.5085 15.08849746121318,6917.851,95.437,540.654,538.777,0.0
52001.0,STARLINK-3659,PAYLOAD,2024-05-09 04:58:05,15.08840745,0.0001884,53.2156,144.557,100.9638,259.1566,-0.0001482,-2.646e-05,0.0,0 STARLINK-3659,1 52001U 22025AX  24130.20700267 -.00002646  00000-0 -14820-3 0  9991,2 52001  53.2156 144.5570 0001884 100.9638 259.1566 15.08840745121387,6917.878,95.438,541.046,538.44,0.0
52001.0,STARLINK-3659,PAYLOAD,2024-05-09 09:44:15,15.08837061,0.0001534,53.2172,143.6639,102.5025,257.6138,-9.24e-05,-1.758e-05,0.0,0 STARLINK-3659,1 52001U 22025AX  24130.40573101 -.00001758  00000-0 -92400-4 0  9992,2 52001  53.2172 143.6639 0001534 102.5025 257.6138 15.08837061121410,6917.889,95.438,540.816,538.693,0.0
52001.0,STARLINK-3659,PAYLOAD,2024-05-10 07:59:38,15.08833161,0.0001475,53.2173,139.4999,100.8342,259.2816,0.00016953,2.411e-05,0.0,0 STARLINK-3659,1 52001U 22025AX  24131.33308881  .00002411  00000-0  16953-3 0  9999,2 52001  53.2173 139.4999 0001475 100.8342 259.2816 15.08833161120024,6917.901,95.438,540.787,538.746,0.0
52001.0,STARLINK-3659,PAYLOAD,2024-05-10 17:31:57,15.08843769,0.0001275,53.2158,137.7135,89.3158,270.798,0.00015584,2.193e-05,0.0,0 STARLINK-3659,1 52001U 22025AX  24131.73052347  .00002193  00000-0  15584-3 0  9992,2 52001  53.2158 137.7135 0001275  89.3158 270.7980 15.08843769121615,6917.869,95.437,540.616,538.852,0.0
52001.0,STARLINK-3659,PAYLOAD,2024-05-11 07:50:24,15.08875695,0.0001314,53.2147,135.0365,106.7276,253.386,0.00076962,0.00011994,0.0,0 STARLINK-3659,1 52001U 22025AX  24132.32667521  .00011994  00000-0  76962-3 0  9990,2 52001  53.2147 135.0365 0001314 106.7276 253.3860 15.08875695121705,6917.771,95.435,540.545,538.727,0.0
52001.0,STARLINK-3659,PAYLOAD,2024-05-11 17:22:42,15.0888517,0.0001705,53.2146,133.2524,67.314,292.8032,0.00086139,0.00013464,0.0,0 STARLINK-3659,1 52001U 22025AX  24132.72410387  .00013464  00000-0  86139-3 0  9991,2 52001  53.2146 133.2524 0001705  67.3140 292.8032 15.08885170120232,6917.742,95.435,540.787,538.428,0.0
52001.0,STARLINK-3659,PAYLOAD,2024-05-12 04:30:26,15.08816846,0.0001585,53.2153,131.1705,78.3163,281.8006,-0.00067349,-0.00010984,0.0,0 STARLINK-3659,1 52001U 22025AX  24133.18780571 -.00010984  00000-0 -67349-3 0  9995,2 52001  53.2153 131.1705 0001585  78.3163 281.8006 15.08816846121831,6917.951,95.439,540.913,538.72,0.0
52001.0,STARLINK-3659,PAYLOAD,2024-05-12 09:16:36,15.08814105,0.000139,53.2148,130.278,77.9644,282.1503,-0.0006295,-0.00010285,0.0,0 STARLINK-3659,1 52001U 22025AX  24133.38652850 -.00010285  00000-0 -62950-3 0  9992,2 52001  53.2148 130.2780 0001390  77.9644 282.1503 15.08814105120337,6917.96,95.439,540.786,538.863,0.0
52001.0,STARLINK-3659,PAYLOAD,2024-05-12 17:13:32,15.0881343,0.0001433,53.2153,128.7926,75.375,284.7401,-0.00042539,-7.047e-05,0.0,0 STARLINK-3659,1 52001U 22025AX  24133.71773431 -.00007047  00000-0 -42539-3 0  9991,2 52001  53.2153 128.7926 0001433  75.3750 284.7401 15.08813430120385,6917.962,95.439,540.818,538.835,0.0
52001.0,STARLINK-3659,PAYLOAD,2024-05-13 04:21:14,15.08816873,0.0001407,53.2142,126.7134,54.6345,305.4779,-7.9653e-05,-1.555e-05,0.0,0 STARLINK-3659,1 52001U 22025AX  24134.18142249 -.00001555  00000-0 -79653-4 0  9996,2 52001  53.2142 126.7134 0001407  54.6345 305.4779 15.08816873121983,6917.951,95.439,540.789,538.843,0.0
52001.0,STARLINK-3659,PAYLOAD,2024-05-13 05:56:38,15.08815712,0.0001465,53.2146,126.4135,68.8245,291.2904,0.00053606,8.248e-05,0.0,0 STARLINK-3659,1 52001U 22025AX  24134.24766533  .00008248  00000-0  53606-3 0  9994,2 52001  53.2146 126.4135 0001465  68.8245 291.2904 15.08815712120460,6917.955,95.439,540.833,538.806,0.0
52001.0,STARLINK-3659,PAYLOAD,2024-05-13 17:04:20,15.08825854,0.0001565,53.2149,124.3321,68.1841,291.9317,0.00064696,0.00010019,0.0,0 STARLINK-3659,1 52001U 22025AX  24134.71135075  .00010019  00000-0  64696-3 0  9997,2 52001  53.2149 124.3321 0001565  68.1841 291.9317 15.08825854120534,6917.924,95.438,540.871,538.706,0.0
52001.0,STARLINK-3659,PAYLOAD,2024-05-14 05:47:25,15.08848218,0.0001554,53.2148,121.9532,65.864,294.2515,0.00084553,0.00013197,0.0,0 STARLINK-3659,1 52001U 22025AX  24135.24126892  .00013197  00000-0  84553-3 0  9997,2 52001  53.2148 121.9532 0001554  65.8640 294.2515 15.08848218122143,6917.855,95.437,540.795,538.645,0.0
52001.0,STARLINK-3659,PAYLOAD,2024-05-15 08:48:57,15.08878367,0.0001622,53.2155,116.8972,70.5591,289.5576,0.0010241,0.00016065,0.0,0 STARLINK-3659,1 52001U 22025AX  24136.36733294  .00016065  00000-0  10241-2 0  9990,2 52001  53.2155 116.8972 0001622  70.5591 289.5576 15.08878367122317,6917.763,95.435,540.75,538.506,0.0
52001.0,STARLINK-3659,PAYLOAD,2024-05-15 23:07:25,15.08867782,0.0001813,53.2157,114.2192,71.5421,288.5768,6.0919e-05,6.82e-06,0.0,0 STARLINK-3659,1 52001U 22025AX  24136.96348686  .00000682  00000-0  60919-4 0  9990,2 52001  53.2157 114.2192 0001813  71.5421 288.5768 15.08867782120870,6917.795,95.436,540.915,538.406,0.0
52001.0,STARLINK-3659,PAYLOAD,2024-05-16 05:28:57,15.08853766,0.0001561,53.216,113.0313,71.4791,288.6371,4.6057e-05,4.45e-06,0.0,0 STARLINK-3659,1 52001U 22025AX  24137.22844844  .00000445  00000-0  46057-4 0  9991,2 52001  53.2160 113.0313 0001561  71.4791 288.6371 15.08853766122448,6917.838,95.437,540.783,538.623,0.0
52001.0,STARLINK-3659,PAYLOAD,2024-05-16 15:01:16,15.08859325,0.0001549,53.2163,111.2478,84.7765,275.3404,0.00029305,4.381e-05,0.0,0 STARLINK-3659,1 52001U 22025AX  24137.62588349  .00004381  00000-0  29305-3 0  9999,2 52001  53.2163 111.2478 0001549  84.7765 275.3404 15.08859325120970,6917.821,95.436,540.758,538.615,0.0
52001.0,STARLINK-3659,PAYLOAD,2024-05-17 05:19:44,15.08849517,0.000159,53.2164,108.5746,99.3437,260.7734,-1.5155e-05,-5.29e-06,0.0,0 STARLINK-3659,1 52001U 22025AX  24138.22204615 -.00000529  00000-0 -15155-4 0  9998,2 52001  53.2164 108.5746 0001590  99.3437 260.7734 15.08849517122598,6917.851,95.437,540.816,538.616,0.0
52001.0,STARLINK-3659,PAYLOAD,2024-05-18 03:35:08,15.08841465,0.0001505,53.2159,104.4115,105.3245,254.7913,9.8143e-05,1.274e-05,0.0,0 STARLINK-3659,1 52001U 22025AX  24139.14940581  .00001274  00000-0  98143-4 0  9993,2 52001  53.2159 104.4115 0001505 105.3245 254.7913 15.08841465122730,6917.876,95.437,540.782,538.7,0.0
52001.0,STARLINK-3659,PAYLOAD,2024-05-18 14:42:50,15.08846188,0.0001198,53.2146,102.3283,90.1887,269.9242,0.00020579,2.989e-05,0.0,0 STARLINK-3659,1 52001U 22025AX  24139.61308355  .00002989  00000-0  20579-3 0  9993,2 52001  53.2146 102.3283 0001198  90.1887 269.9242 15.08846188121278,6917.861,95.437,540.555,538.898,0.0
52001.0,STARLINK-3659,PAYLOAD,2024-05-19 03:25:56,15.08820592,0.0001086,53.2144,99.9492,98.8,261.3115,-0.00015389,-2.735e-05,0.0,0 STARLINK-3659,1 52001U 22025AX  24140.14301961 -.00002735  00000-0 -15389-3 0  9993,2 52001  53.2144  99.9492 0001086  98.8000 261.3115 15.08820592122881,6917.94,95.439,540.556,539.053,0.0
52001.0,STARLINK-3659,PAYLOAD,2024-05-19 20:55:10,15.0884005,0.0001271,53.2157,96.6762,104.8164,255.2969,0.00016705,2.372e-05,0.0,0 STARLINK-3659,1 52001U 22025AX  24140.87165431  .00002372  00000-0  16705-3 0  9991,2 52001  53.2157  96.6762 0001271 104.8164 255.2969 15.08840050122996,6917.88,95.438,540.624,538.866,0.0
